{
  "type": "FeatureCollection",
  "features": [
    {
      "type": "Feature",
      "properties": {
        "norad_id": 66622,
        "name": "STARLINK-35950",
        "group": "last-30-days",
        "lat": 29.30937092246442,
        "lon": -136.6870320179597,
        "alt_km": 383.5826746469738,
        "timestamp": "2025-12-10T09:57:43.490007+00:00",
        "meta_object_name": "STARLINK-35950",
        "meta_object_id": "2025-271F",
        "meta_epoch": "2025-12-10T04:00:01.998720",
        "meta_mean_motion": 15.61167035,
        "meta_eccentricity": 9.45e-05,
        "meta_inclination": 53.1593,
        "meta_ra_of_asc_node": 199.63,
        "meta_arg_of_pericenter": 85.5086,
        "meta_mean_anomaly": 355.9541,
        "meta_ephemeris_type": 0,
        "meta_classification_type": "U",
        "meta_norad_cat_id": 66622,
        "meta_element_set_no": 999,
        "meta_rev_at_epoch": 383,
        "meta_bstar": -0.026485,
        "meta_mean_motion_dot": -0.02002475,
        "meta_mean_motion_ddot": 0,
        "tle_line1": "1 66622U 25271F   25344.16668980 -.02002475  00000+0 -26485-1 0  9998",
        "tle_line2": "2 66622  53.1593 199.6300 0000945  85.5086 355.9541 15.61167035  3839"
      },
      "geometry": {
        "type": "Point",
        "coordinates": [
          -136.6870320179597,
          29.30937092246442
        ]
      }
    },
    {
      "type": "Feature",
      "properties": {
        "norad_id": 66623,
        "name": "STARLINK-35920",
        "group": "last-30-days",
        "lat": 32.05895015496164,
        "lon": -133.5814687520942,
        "alt_km": 383.0220052971699,
        "timestamp": "2025-12-10T09:57:43.490017+00:00",
        "meta_object_name": "STARLINK-35920",
        "meta_object_id": "2025-271G",
        "meta_epoch": "2025-12-10T04:00:01.998720",
        "meta_mean_motion": 15.61168121,
        "meta_eccentricity": 0.0001054,
        "meta_inclination": 53.1597,
        "meta_ra_of_asc_node": 199.6212,
        "meta_arg_of_pericenter": 75.2424,
        "meta_mean_anomaly": 10.053,
        "meta_ephemeris_type": 0,
        "meta_classification_type": "U",
        "meta_norad_cat_id": 66623,
        "meta_element_set_no": 999,
        "meta_rev_at_epoch": 383,
        "meta_bstar": -0.026521,
        "meta_mean_motion_dot": -0.02005005,
        "meta_mean_motion_ddot": 0,
        "tle_line1": "1 66623U 25271G   25344.16668980 -.02005005  00000+0 -26521-1 0  9992",
        "tle_line2": "2 66623  53.1597 199.6212 0001054  75.2424  10.0530 15.61168121  3834"
      },
      "geometry": {
        "type": "Point",
        "coordinates": [
          -133.5814687520942,
          32.05895015496164
        ]
      }
    },
    {
      "type": "Feature",
      "properties": {
        "norad_id": 66624,
        "name": "STARLINK-35927",
        "group": "last-30-days",
        "lat": 30.69347261020308,
        "lon": -135.15589481911897,
        "alt_km": 383.35292635288624,
        "timestamp": "2025-12-10T09:57:43.490027+00:00",
        "meta_object_name": "STARLINK-35927",
        "meta_object_id": "2025-271H",
        "meta_epoch": "2025-12-10T04:00:01.998720",
        "meta_mean_motion": 15.61169237,
        "meta_eccentricity": 8.91e-05,
        "meta_inclination": 53.1593,
        "meta_ra_of_asc_node": 199.6259,
        "meta_arg_of_pericenter": 83.0959,
        "meta_mean_anomaly": 0.2814,
        "meta_ephemeris_type": 0,
        "meta_classification_type": "U",
        "meta_norad_cat_id": 66624,
        "meta_element_set_no": 999,
        "meta_rev_at_epoch": 383,
        "meta_bstar": -0.026514,
        "meta_mean_motion_dot": -0.02004486,
        "meta_mean_motion_ddot": 0,
        "tle_line1": "1 66624U 25271H   25344.16668980 -.02004486  00000+0 -26514-1 0  9997",
        "tle_line2": "2 66624  53.1593 199.6259 0000891  83.0959   0.2814 15.61169237  3835"
      },
      "geometry": {
        "type": "Point",
        "coordinates": [
          -135.15589481911897,
          30.69347261020308
        ]
      }
    },
    {
      "type": "Feature",
      "properties": {
        "norad_id": 66625,
        "name": "STARLINK-35929",
        "group": "last-30-days",
        "lat": 33.40376321241413,
        "lon": -131.9593363755215,
        "alt_km": 382.9496953671569,
        "timestamp": "2025-12-10T09:57:43.490039+00:00",
        "meta_object_name": "STARLINK-35929",
        "meta_object_id": "2025-271J",
        "meta_epoch": "2025-12-10T04:00:01.998720",
        "meta_mean_motion": 15.61171239,
        "meta_eccentricity": 9.48e-05,
        "meta_inclination": 53.1597,
        "meta_ra_of_asc_node": 199.6169,
        "meta_arg_of_pericenter": 95.4743,
        "meta_mean_anomaly": 351.7367,
        "meta_ephemeris_type": 0,
        "meta_classification_type": "U",
        "meta_norad_cat_id": 66625,
        "meta_element_set_no": 999,
        "meta_rev_at_epoch": 383,
        "meta_bstar": -0.026581,
        "meta_mean_motion_dot": -0.02009083,
        "meta_mean_motion_ddot": 0,
        "tle_line1": "1 66625U 25271J   25344.16668980 -.02009083  00000+0 -26581-1 0  9990",
        "tle_line2": "2 66625  53.1597 199.6169 0000948  95.4743 351.7367 15.61171239  3833"
      },
      "geometry": {
        "type": "Point",
        "coordinates": [
          -131.9593363755215,
          33.40376321241413
        ]
      }
    },
    {
      "type": "Feature",
      "properties": {
        "norad_id": 66626,
        "name": "STARLINK-35902",
        "group": "last-30-days",
        "lat": 34.72932556918779,
        "lon": -130.28181481521827,
        "alt_km": 382.59004958484184,
        "timestamp": "2025-12-10T09:57:43.490051+00:00",
        "meta_object_name": "STARLINK-35902",
        "meta_object_id": "2025-271K",
        "meta_epoch": "2025-12-10T04:00:01.998720",
        "meta_mean_motion": 15.61173531,
        "meta_eccentricity": 0.0001014,
        "meta_inclination": 53.1595,
        "meta_ra_of_asc_node": 199.6136,
        "meta_arg_of_pericenter": 75.8978,
        "meta_mean_anomaly": 13.2302,
        "meta_ephemeris_type": 0,
        "meta_classification_type": "U",
        "meta_norad_cat_id": 66626,
        "meta_element_set_no": 999,
        "meta_rev_at_epoch": 383,
        "meta_bstar": -0.026634,
        "meta_mean_motion_dot": -0.02012844,
        "meta_mean_motion_ddot": 0,
        "tle_line1": "1 66626U 25271K   25344.16668980 -.02012844  00000+0 -26634-1 0  9999",
        "tle_line2": "2 66626  53.1595 199.6136 0001014  75.8978  13.2302 15.61173531  3839"
      },
      "geometry": {
        "type": "Point",
        "coordinates": [
          -130.28181481521827,
          34.72932556918779
        ]
      }
    },
    {
      "type": "Feature",
      "properties": {
        "norad_id": 66627,
        "name": "STARLINK-35904",
        "group": "last-30-days",
        "lat": 36.02775724235828,
        "lon": -128.5561163240863,
        "alt_km": 382.34871919358375,
        "timestamp": "2025-12-10T09:57:43.490065+00:00",
        "meta_object_name": "STARLINK-35904",
        "meta_object_id": "2025-271L",
        "meta_epoch": "2025-12-10T04:00:01.998720",
        "meta_mean_motion": 15.61167443,
        "meta_eccentricity": 0.0001057,
        "meta_inclination": 53.1597,
        "meta_ra_of_asc_node": 199.6092,
        "meta_arg_of_pericenter": 76.9423,
        "meta_mean_anomaly": 14.1032,
        "meta_ephemeris_type": 0,
        "meta_classification_type": "U",
        "meta_norad_cat_id": 66627,
        "meta_element_set_no": 999,
        "meta_rev_at_epoch": 367,
        "meta_bstar": -0.026491,
        "meta_mean_motion_dot": -0.02002994,
        "meta_mean_motion_ddot": 0,
        "tle_line1": "1 66627U 25271L   25344.16668980 -.02002994  00000+0 -26491-1 0  9996",
        "tle_line2": "2 66627  53.1597 199.6092 0001057  76.9423  14.1032 15.61167443  3674"
      },
      "geometry": {
        "type": "Point",
        "coordinates": [
          -128.5561163240863,
          36.02775724235828
        ]
      }
    },
    {
      "type": "Feature",
      "properties": {
        "norad_id": 66628,
        "name": "STARLINK-35862",
        "group": "last-30-days",
        "lat": 37.30138038830905,
        "lon": -126.77081582668903,
        "alt_km": 382.1832580980845,
        "timestamp": "2025-12-10T09:57:43.490075+00:00",
        "meta_object_name": "STARLINK-35862",
        "meta_object_id": "2025-271M",
        "meta_epoch": "2025-12-10T04:00:01.998720",
        "meta_mean_motion": 15.61167527,
        "meta_eccentricity": 0.0001008,
        "meta_inclination": 53.1595,
        "meta_ra_of_asc_node": 199.6052,
        "meta_arg_of_pericenter": 80.7357,
        "meta_mean_anomaly": 12.226,
        "meta_ephemeris_type": 0,
        "meta_classification_type": "U",
        "meta_norad_cat_id": 66628,
        "meta_element_set_no": 999,
        "meta_rev_at_epoch": 383,
        "meta_bstar": -0.026493,
        "meta_mean_motion_dot": -0.02003037,
        "meta_mean_motion_ddot": 0,
        "tle_line1": "1 66628U 25271M   25344.16668980 -.02003037  00000+0 -26493-1 0  9998",
        "tle_line2": "2 66628  53.1595 199.6052 0001008  80.7357  12.2260 15.61167527  3837"
      },
      "geometry": {
        "type": "Point",
        "coordinates": [
          -126.77081582668903,
          37.30138038830905
        ]
      }
    }
  ]
}